start=new Date('2022-04-11T00:00:00.000Z').valueOf();
sats=[{"MEAN_MOTION_DDOT":"0.0000000000000","EPHEMERIS_TYPE":"0","CLASSIFICATION_TYPE":"U","FILE":"3396586","OBJECT_ID":"2022-010F","MEAN_ANOMALY":"347.4956","OBJECT_TYPE":"PAYLOAD","MEAN_ELEMENT_THEORY":"SGP4","INCLINATION":"53.2172","LAUNCH_DATE":"2022-02-03","ECCENTRICITY":"0.00016190","EPOCH":"2022-04-10T22:00:00.999936","TLE_LINE2":"2 51461  53.2172 213.1859 0001619  41.8238 347.4956 15.14097923  3643","OBJECT_NAME":"STARLINK-3181","ARG_OF_PERICENTER":"41.8238","TLE_LINE1":"1 51461U 22010F   22100.91667824 -.00724814  00000-0 -42273-1 0  9997","BSTAR":"-0.04227300000000","RA_OF_ASC_NODE":"213.1859","REV_AT_EPOCH":"364","DECAY_DATE":null,"TIME_SYSTEM":"UTC","COUNTRY_CODE":"US","SEMIMAJOR_AXIS":"6901.856","SITE":"AFETR","APOAPSIS":"524.838","MEAN_MOTION":"15.14097923","GP_ID":"200944483","REF_FRAME":"TEME","CENTER_NAME":"EARTH","NORAD_CAT_ID":"51461","RCS_SIZE":"LARGE","MEAN_MOTION_DOT":"-0.00724814","PERIOD":"95.106","PERIAPSIS":"522.603","ELEMENT_SET_NO":"999"},{"NORAD_CAT_ID":"51462","MEAN_MOTION_DOT":"-0.00724274","RCS_SIZE":"LARGE","ELEMENT_SET_NO":"999","PERIOD":"95.098","PERIAPSIS":"522.238","MEAN_MOTION":"15.14225531","APOAPSIS":"524.428","GP_ID":"200944613","REF_FRAME":"TEME","CENTER_NAME":"EARTH","RA_OF_ASC_NODE":"213.1860","REV_AT_EPOCH":"364","TLE_LINE1":"1 51462U 22010G   22100.91667824 -.00724274  00000-0 -42087-1 0  9991","BSTAR":"-0.04208700000000","TIME_SYSTEM":"UTC","DECAY_DATE":null,"SEMIMAJOR_AXIS":"6901.468","COUNTRY_CODE":"US","SITE":"AFETR","EPHEMERIS_TYPE":"0","MEAN_MOTION_DDOT":"0.0000000000000","CLASSIFICATION_TYPE":"U","OBJECT_TYPE":"PAYLOAD","MEAN_ANOMALY":"3.7888","MEAN_ELEMENT_THEORY":"SGP4","INCLINATION":"53.2173","FILE":"3396586","OBJECT_ID":"2022-010G","ARG_OF_PERICENTER":"43.9296","EPOCH":"2022-04-10T22:00:00.999936","TLE_LINE2":"2 51462  53.2173 213.1860 0001587  43.9296   3.7888 15.14225531  3642","OBJECT_NAME":"STARLINK-3166","ECCENTRICITY":"0.00015870","LAUNCH_DATE":"2022-02-03"},{"ECCENTRICITY":"0.00016180","LAUNCH_DATE":"2022-02-03","ARG_OF_PERICENTER":"53.2221","TLE_LINE2":"2 51463  53.2173 213.1723 0001618  53.2221 129.9365 15.14573974  3657","OBJECT_NAME":"STARLINK-3419","EPOCH":"2022-04-10T22:00:00.999936","FILE":"3396586","OBJECT_ID":"2022-010H","OBJECT_TYPE":"PAYLOAD","MEAN_ELEMENT_THEORY":"SGP4","MEAN_ANOMALY":"129.9365","INCLINATION":"53.2173","CLASSIFICATION_TYPE":"U","MEAN_MOTION_DDOT":"0.0000000000000","EPHEMERIS_TYPE":"0","SITE":"AFETR","COUNTRY_CODE":"US","SEMIMAJOR_AXIS":"6900.409","TIME_SYSTEM":"UTC","DECAY_DATE":null,"BSTAR":"-0.04157200000000","TLE_LINE1":"1 51463U 22010H   22100.91667824 -.00722640  00000-0 -41572-1 0  9995","REV_AT_EPOCH":"365","RA_OF_ASC_NODE":"213.1723","CENTER_NAME":"EARTH","REF_FRAME":"TEME","GP_ID":"200944386","MEAN_MOTION":"15.14573974","APOAPSIS":"523.391","ELEMENT_SET_NO":"999","PERIAPSIS":"521.158","PERIOD":"95.076","RCS_SIZE":"LARGE","MEAN_MOTION_DOT":"-0.00722640","NORAD_CAT_ID":"51463"},{"CENTER_NAME":"EARTH","REF_FRAME":"TEME","GP_ID":"200944192","APOAPSIS":"523.692","MEAN_MOTION":"15.14480610","PERIOD":"95.082","PERIAPSIS":"521.424","ELEMENT_SET_NO":"999","RCS_SIZE":"LARGE","MEAN_MOTION_DOT":"-0.00722944","NORAD_CAT_ID":"51464","LAUNCH_DATE":"2022-02-03","ECCENTRICITY":"0.00016430","EPOCH":"2022-04-10T22:00:00.999936","TLE_LINE2":"2 51464  53.2173 213.1858 0001643  44.2283  40.1729 15.14480610  3655","OBJECT_NAME":"STARLINK-3189","ARG_OF_PERICENTER":"44.2283","FILE":"3396586","OBJECT_ID":"2022-010J","OBJECT_TYPE":"PAYLOAD","INCLINATION":"53.2173","MEAN_ANOMALY":"40.1729","MEAN_ELEMENT_THEORY":"SGP4","CLASSIFICATION_TYPE":"U","EPHEMERIS_TYPE":"0","MEAN_MOTION_DDOT":"0.0000000000000","SITE":"AFETR","COUNTRY_CODE":"US","SEMIMAJOR_AXIS":"6900.693","DECAY_DATE":null,"TIME_SYSTEM":"UTC","TLE_LINE1":"1 51464U 22010J   22100.91667824 -.00722944  00000-0 -41701-1 0  9997","BSTAR":"-0.04170100000000","REV_AT_EPOCH":"365","RA_OF_ASC_NODE":"213.1858"},{"CENTER_NAME":"EARTH","REF_FRAME":"TEME","GP_ID":"200944808","APOAPSIS":"523.312","MEAN_MOTION":"15.14608217","PERIAPSIS":"521.028","PERIOD":"95.074","ELEMENT_SET_NO":"999","MEAN_MOTION_DOT":"-0.00722423","RCS_SIZE":"LARGE","NORAD_CAT_ID":"51465","TLE_LINE2":"2 51465  53.2173 213.1856 0001655  44.7098  57.9750 15.14608217  3651","EPOCH":"2022-04-10T22:00:00.999936","OBJECT_NAME":"STARLINK-3401","ARG_OF_PERICENTER":"44.7098","LAUNCH_DATE":"2022-02-03","ECCENTRICITY":"0.00016550","OBJECT_TYPE":"PAYLOAD","MEAN_ANOMALY":"57.9750","MEAN_ELEMENT_THEORY":"SGP4","INCLINATION":"53.2173","OBJECT_ID":"2022-010K","FILE":"3396586","CLASSIFICATION_TYPE":"U","EPHEMERIS_TYPE":"0","MEAN_MOTION_DDOT":"0.0000000000000","SITE":"AFETR","SEMIMAJOR_AXIS":"6900.305","COUNTRY_CODE":"US","DECAY_DATE":null,"TIME_SYSTEM":"UTC","REV_AT_EPOCH":"365","RA_OF_ASC_NODE":"213.1856","TLE_LINE1":"1 51465U 22010K   22100.91667824 -.00722423  00000-0 -41518-1 0  9996","BSTAR":"-0.04151800000000"},{"TLE_LINE1":"1 51467U 22010M   22100.91667824 -.00722977  00000-0 -44316-1 0  9991","BSTAR":"-0.04431600000000","RA_OF_ASC_NODE":"213.1678","REV_AT_EPOCH":"364","DECAY_DATE":null,"TIME_SYSTEM":"UTC","COUNTRY_CODE":"US","SEMIMAJOR_AXIS":"6907.247","SITE":"AFETR","MEAN_MOTION_DDOT":"0.0000000000000","EPHEMERIS_TYPE":"0","CLASSIFICATION_TYPE":"U","FILE":"3396586","OBJECT_ID":"2022-010M","OBJECT_TYPE":"PAYLOAD","MEAN_ELEMENT_THEORY":"SGP4","MEAN_ANOMALY":"183.1803","INCLINATION":"53.2172","LAUNCH_DATE":"2022-02-03","ECCENTRICITY":"0.00018300","TLE_LINE2":"2 51467  53.2172 213.1678 0001830  44.3715 183.1803 15.12325398  3645","EPOCH":"2022-04-10T22:00:00.999936","OBJECT_NAME":"STARLINK-3178","ARG_OF_PERICENTER":"44.3715","NORAD_CAT_ID":"51467","RCS_SIZE":"LARGE","MEAN_MOTION_DOT":"-0.00722977","PERIOD":"95.218","PERIAPSIS":"527.848","ELEMENT_SET_NO":"999","APOAPSIS":"530.376","MEAN_MOTION":"15.12325398","GP_ID":"200944289","REF_FRAME":"TEME","CENTER_NAME":"EARTH"},{"CENTER_NAME":"EARTH","REF_FRAME":"TEME","GP_ID":"200944711","MEAN_MOTION":"15.14317743","APOAPSIS":"524.151","ELEMENT_SET_NO":"999","PERIOD":"95.092","PERIAPSIS":"521.954","RCS_SIZE":"LARGE","MEAN_MOTION_DOT":"-0.00721795","NORAD_CAT_ID":"51468","ECCENTRICITY":"0.00015920","LAUNCH_DATE":"2022-02-03","ARG_OF_PERICENTER":"52.3548","TLE_LINE2":"2 51468  53.2173 213.1733 0001592  52.3548  94.1772 15.14317743  3651","OBJECT_NAME":"STARLINK-3174","EPOCH":"2022-04-10T22:00:00.999936","FILE":"3396586","OBJECT_ID":"2022-010N","OBJECT_TYPE":"PAYLOAD","MEAN_ANOMALY":"94.1772","MEAN_ELEMENT_THEORY":"SGP4","INCLINATION":"53.2173","CLASSIFICATION_TYPE":"U","MEAN_MOTION_DDOT":"0.0000000000000","EPHEMERIS_TYPE":"0","SITE":"AFETR","COUNTRY_CODE":"US","SEMIMAJOR_AXIS":"6901.188","TIME_SYSTEM":"UTC","DECAY_DATE":null,"TLE_LINE1":"1 51468U 22010N   22100.91667824 -.00721795  00000-0 -41823-1 0  9999","BSTAR":"-0.04182300000000","RA_OF_ASC_NODE":"213.1733","REV_AT_EPOCH":"365"},{"FILE":"3396586","OBJECT_ID":"2022-010P","MEAN_ELEMENT_THEORY":"SGP4","OBJECT_TYPE":"PAYLOAD","INCLINATION":"53.2173","MEAN_ANOMALY":"24.9834","LAUNCH_DATE":"2022-02-03","ECCENTRICITY":"0.00016800","TLE_LINE2":"2 51469  53.2173 213.1860 0001680  41.0956  24.9834 15.14353104  3650","EPOCH":"2022-04-10T22:00:00.999936","OBJECT_NAME":"STARLINK-3182","ARG_OF_PERICENTER":"41.0956","EPHEMERIS_TYPE":"0","MEAN_MOTION_DDOT":"0.0000000000000","CLASSIFICATION_TYPE":"U","COUNTRY_CODE":"US","SEMIMAJOR_AXIS":"6901.080","SITE":"AFETR","BSTAR":"-0.04189800000000","TLE_LINE1":"1 51469U 22010P   22100.91667824 -.00723687  00000-0 -41898-1 0  9994","REV_AT_EPOCH":"365","RA_OF_ASC_NODE":"213.1860","DECAY_DATE":null,"TIME_SYSTEM":"UTC","REF_FRAME":"TEME","CENTER_NAME":"EARTH","APOAPSIS":"524.105","MEAN_MOTION":"15.14353104","GP_ID":"200944516","PERIOD":"95.090","PERIAPSIS":"521.786","ELEMENT_SET_NO":"999","NORAD_CAT_ID":"51469","RCS_SIZE":"LARGE","MEAN_MOTION_DOT":"-0.00723687"},{"REF_FRAME":"TEME","CENTER_NAME":"EARTH","APOAPSIS":"484.801","MEAN_MOTION":"15.27348114","GP_ID":"200944484","PERIOD":"94.281","PERIAPSIS":"482.690","ELEMENT_SET_NO":"999","NORAD_CAT_ID":"51471","MEAN_MOTION_DOT":"-0.00210214","RCS_SIZE":"LARGE","OBJECT_TYPE":"PAYLOAD","MEAN_ANOMALY":"303.8018","MEAN_ELEMENT_THEORY":"SGP4","INCLINATION":"53.2149","OBJECT_ID":"2022-010R","FILE":"3396586","TLE_LINE2":"2 51471  53.2149 209.4223 0001538  56.3128 303.8018 15.27348114 11166","EPOCH":"2022-04-10T18:33:55.277280","OBJECT_NAME":"STARLINK-3165","ARG_OF_PERICENTER":"56.3128","LAUNCH_DATE":"2022-02-03","ECCENTRICITY":"0.00015380","EPHEMERIS_TYPE":"0","MEAN_MOTION_DDOT":"0.0000000000000","CLASSIFICATION_TYPE":"U","SEMIMAJOR_AXIS":"6861.881","COUNTRY_CODE":"US","SITE":"AFETR","REV_AT_EPOCH":"1116","RA_OF_ASC_NODE":"209.4223","TLE_LINE1":"1 51471U 22010R   22100.77355645 -.00210214  00000-0 -79552-2 0  9992","BSTAR":"-0.00795520000000","DECAY_DATE":null,"TIME_SYSTEM":"UTC"},{"SITE":"AFETR","COUNTRY_CODE":"US","SEMIMAJOR_AXIS":"6900.799","TIME_SYSTEM":"UTC","DECAY_DATE":null,"TLE_LINE1":"1 51472U 22010S   22100.91667824 -.00721874  00000-0 -41676-1 0  9998","BSTAR":"-0.04167600000000","REV_AT_EPOCH":"365","RA_OF_ASC_NODE":"213.1728","ECCENTRICITY":"0.00016620","LAUNCH_DATE":"2022-02-03","ARG_OF_PERICENTER":"50.2987","EPOCH":"2022-04-10T22:00:00.999936","TLE_LINE2":"2 51472  53.2173 213.1728 0001662  50.2987 114.5659 15.14445645  3656","OBJECT_NAME":"STARLINK-3415","FILE":"3396586","OBJECT_ID":"2022-010S","MEAN_ELEMENT_THEORY":"SGP4","OBJECT_TYPE":"PAYLOAD","INCLINATION":"53.2173","MEAN_ANOMALY":"114.5659","CLASSIFICATION_TYPE":"U","MEAN_MOTION_DDOT":"0.0000000000000","EPHEMERIS_TYPE":"0","ELEMENT_SET_NO":"999","PERIOD":"95.084","PERIAPSIS":"521.517","RCS_SIZE":"LARGE","MEAN_MOTION_DOT":"-0.00721874","NORAD_CAT_ID":"51472","CENTER_NAME":"EARTH","REF_FRAME":"TEME","GP_ID":"200944614","MEAN_MOTION":"15.14445645","APOAPSIS":"523.811"}];
